ONEWEB-0656             
1 55817U 23029X   25304.79737613 -.00000131  00000+0 -35469-3 0  9995
2 55817  87.9202 319.9755 0001573  81.5410 278.5902 13.20771378131007
ONEWEB-0657             
1 55818U 23029Y   25304.63697506 -.00000025  00000+0 -94854-4 0  9991
2 55818  87.9231 350.4614 0002179  76.4380 283.6996 13.19722324128760
ONEWEB-0658             
1 55819U 23029Z   25304.63224751  .00000036  00000+0  56514-4 0  9991
2 55819  87.9248 350.4085 0002376 102.1626 257.9773 13.19725636128777
ONEWEB-0660             
1 55820U 23029AA  25304.54494135  .00000241  00000+0  61669-3 0  9992
2 55820  87.9018 335.2400 0001834 105.8968 254.2364 13.14504347129364
ONEWEB-0661             
1 55821U 23029AB  25304.80819095 -.00000254  00000+0 -71857-3 0  9994
2 55821  87.9011 335.2573 0001773 105.8367 254.2958 13.14500629129384
ONEWEB-0662             
1 55822U 23029AC  25304.61472441  .00000226  00000+0  57421-3 0  9992
2 55822  87.9013 335.3006 0001941 105.6751 254.4593 13.14500856129403
ONEWEB-0663             
1 55823U 23029AD  25304.77094113  .00000086  00000+0  17857-3 0  9999
2 55823  87.9210 320.0435 0002099 104.4224 255.7142 13.20849879130995
ONEWEB-0664             
1 55824U 23029AE  25304.55747419  .00000139  00000+0  31117-3 0  9994
2 55824  87.9193 320.0984 0001523 100.1046 260.0260 13.20770459130965
